start=new Date('2023-02-11T00:00:00.000Z').valueOf();
sats=[{"COUNTRY_CODE":"US","REV_AT_EPOCH":"2623","CENTER_NAME":"EARTH","OBJECT_TYPE":"PAYLOAD","GP_ID":"225072977","SITE":"AFETR","INCLINATION":"53.2161","RCS_SIZE":"LARGE","MEAN_ANOMALY":"262.5000","PERIOD":"95.438","PERIAPSIS":"539.272","LAUNCH_DATE":"2022-08-28","APOAPSIS":"540.257","CLASSIFICATION_TYPE":"U","OBJECT_NAME":"STARLINK-4596","BSTAR":"0.00006004600000","SEMIMAJOR_AXIS":"6917.900","DECAY_DATE":null,"EPOCH":"2023-02-10T19:44:34.838016","MEAN_MOTION":"15.08833645","EPHEMERIS_TYPE":"0","OBJECT_ID":"2022-104AN","MEAN_MOTION_DDOT":"0.0000000000000","ELEMENT_SET_NO":"999","TLE_LINE2":"2 53624  53.2161 234.6193 0000712  97.6073 262.5000 15.08833645 26231","RA_OF_ASC_NODE":"234.6193","ARG_OF_PERICENTER":"97.6073","REF_FRAME":"TEME","FILE":"3785071","NORAD_CAT_ID":"53624","TIME_SYSTEM":"UTC","ECCENTRICITY":"0.00007120","TLE_LINE1":"1 53624U 22104AN  23041.82262544  .00000668  00000-0  60046-4 0  9992","MEAN_ELEMENT_THEORY":"SGP4","MEAN_MOTION_DOT":"0.00000668"},{"MEAN_MOTION_DOT":"0.00002272","TLE_LINE1":"1 53625U 22104AP  23041.82630615  .00002272  00000-0  16079-3 0  9990","MEAN_ELEMENT_THEORY":"SGP4","ECCENTRICITY":"0.00012720","REF_FRAME":"TEME","FILE":"3785071","NORAD_CAT_ID":"53625","TIME_SYSTEM":"UTC","RA_OF_ASC_NODE":"234.6475","ARG_OF_PERICENTER":"86.6023","TLE_LINE2":"2 53625  53.2170 234.6475 0001272  86.6023 273.5114 15.08844486 26233","MEAN_MOTION_DDOT":"0.0000000000000","ELEMENT_SET_NO":"999","EPHEMERIS_TYPE":"0","OBJECT_ID":"2022-104AP","MEAN_MOTION":"15.08844486","EPOCH":"2023-02-10T19:49:52.851360","DECAY_DATE":null,"SEMIMAJOR_AXIS":"6917.867","BSTAR":"0.00016079000000","CLASSIFICATION_TYPE":"U","OBJECT_NAME":"STARLINK-4603","APOAPSIS":"540.612","LAUNCH_DATE":"2022-08-28","PERIAPSIS":"538.852","PERIOD":"95.437","RCS_SIZE":"LARGE","MEAN_ANOMALY":"273.5114","SITE":"AFETR","INCLINATION":"53.2170","OBJECT_TYPE":"PAYLOAD","GP_ID":"225074229","REV_AT_EPOCH":"2623","COUNTRY_CODE":"US","CENTER_NAME":"EARTH"},{"ELEMENT_SET_NO":"999","MEAN_MOTION_DDOT":"0.0000000000000","TLE_LINE2":"2 53626  53.2136 235.1561 0001092  79.0651 281.0464 15.08846026 26224","NORAD_CAT_ID":"53626","TIME_SYSTEM":"UTC","REF_FRAME":"TEME","FILE":"3785071","ARG_OF_PERICENTER":"79.0651","RA_OF_ASC_NODE":"235.1561","ECCENTRICITY":"0.00010920","MEAN_MOTION_DOT":"-0.00000764","MEAN_ELEMENT_THEORY":"SGP4","TLE_LINE1":"1 53626U 22104AQ  23041.67908937 -.00000764  00000-0 -29889-4 0  9999","CENTER_NAME":"EARTH","REV_AT_EPOCH":"2622","COUNTRY_CODE":"US","INCLINATION":"53.2136","SITE":"AFETR","RCS_SIZE":"LARGE","MEAN_ANOMALY":"281.0464","PERIOD":"95.437","GP_ID":"225074476","OBJECT_TYPE":"PAYLOAD","OBJECT_NAME":"STARLINK-4554","CLASSIFICATION_TYPE":"U","BSTAR":"-0.00002988900000","SEMIMAJOR_AXIS":"6917.862","PERIAPSIS":"538.972","LAUNCH_DATE":"2022-08-28","APOAPSIS":"540.482","OBJECT_ID":"2022-104AQ","EPHEMERIS_TYPE":"0","DECAY_DATE":null,"MEAN_MOTION":"15.08846026","EPOCH":"2023-02-10T16:17:53.321568"},{"OBJECT_TYPE":"PAYLOAD","GP_ID":"225072727","RCS_SIZE":"LARGE","PERIOD":"95.437","MEAN_ANOMALY":"263.1732","SITE":"AFETR","INCLINATION":"53.2171","COUNTRY_CODE":"US","REV_AT_EPOCH":"2622","CENTER_NAME":"EARTH","EPOCH":"2023-02-10T16:28:29.986752","MEAN_MOTION":"15.08853408","DECAY_DATE":null,"EPHEMERIS_TYPE":"0","OBJECT_ID":"2022-104AR","APOAPSIS":"540.403","LAUNCH_DATE":"2022-08-28","PERIAPSIS":"539.006","BSTAR":"-0.00026175000000","SEMIMAJOR_AXIS":"6917.839","CLASSIFICATION_TYPE":"U","OBJECT_NAME":"STARLINK-4595","RA_OF_ASC_NODE":"235.1908","ARG_OF_PERICENTER":"96.9375","REF_FRAME":"TEME","FILE":"3785071","NORAD_CAT_ID":"53627","TIME_SYSTEM":"UTC","TLE_LINE2":"2 53627  53.2171 235.1908 0001010  96.9375 263.1732 15.08853408 26221","ELEMENT_SET_NO":"999","MEAN_MOTION_DDOT":"0.0000000000000","TLE_LINE1":"1 53627U 22104AR  23041.68645818 -.00004453  00000-0 -26175-3 0  9990","MEAN_ELEMENT_THEORY":"SGP4","MEAN_MOTION_DOT":"-0.00004453","ECCENTRICITY":"0.00010100"},{"TLE_LINE1":"1 53628U 22104AS  23041.67171924  .00002404  00000-0  16906-3 0  9995","MEAN_ELEMENT_THEORY":"SGP4","MEAN_MOTION_DOT":"0.00002404","ECCENTRICITY":"0.00010970","ARG_OF_PERICENTER":"79.3610","RA_OF_ASC_NODE":"235.1109","NORAD_CAT_ID":"53628","TIME_SYSTEM":"UTC","FILE":"3785071","REF_FRAME":"TEME","MEAN_MOTION_DDOT":"0.0000000000000","ELEMENT_SET_NO":"999","TLE_LINE2":"2 53628  53.2126 235.1109 0001097  79.3610 280.7505 15.08839859 26224","DECAY_DATE":null,"EPOCH":"2023-02-10T16:07:16.542336","MEAN_MOTION":"15.08839859","OBJECT_ID":"2022-104AS","EPHEMERIS_TYPE":"0","PERIAPSIS":"538.987","APOAPSIS":"540.505","LAUNCH_DATE":"2022-08-28","CLASSIFICATION_TYPE":"U","OBJECT_NAME":"STARLINK-4600","BSTAR":"0.00016906000000","SEMIMAJOR_AXIS":"6917.881","GP_ID":"225073478","OBJECT_TYPE":"PAYLOAD","INCLINATION":"53.2126","SITE":"AFETR","RCS_SIZE":"LARGE","PERIOD":"95.438","MEAN_ANOMALY":"280.7505","CENTER_NAME":"EARTH","COUNTRY_CODE":"US","REV_AT_EPOCH":"2622"},{"MEAN_MOTION_DOT":"-0.00000759","MEAN_ELEMENT_THEORY":"SGP4","TLE_LINE1":"1 53629U 22104AT  23041.68277521 -.00000759  00000-0 -29614-4 0  9991","ECCENTRICITY":"0.00011290","REF_FRAME":"TEME","FILE":"3785071","TIME_SYSTEM":"UTC","NORAD_CAT_ID":"53629","RA_OF_ASC_NODE":"235.1766","ARG_OF_PERICENTER":"88.5287","ELEMENT_SET_NO":"999","MEAN_MOTION_DDOT":"0.0000000000000","TLE_LINE2":"2 53629  53.2157 235.1766 0001129  88.5287 271.5834 15.08834604 26222","EPHEMERIS_TYPE":"0","OBJECT_ID":"2022-104AT","DECAY_DATE":null,"EPOCH":"2023-02-10T16:23:11.778144","MEAN_MOTION":"15.08834604","OBJECT_NAME":"STARLINK-4602","CLASSIFICATION_TYPE":"U","BSTAR":"-0.00002961400000","SEMIMAJOR_AXIS":"6917.897","PERIAPSIS":"538.981","LAUNCH_DATE":"2022-08-28","APOAPSIS":"540.543","INCLINATION":"53.2157","SITE":"AFETR","PERIOD":"95.438","RCS_SIZE":"LARGE","MEAN_ANOMALY":"271.5834","OBJECT_TYPE":"PAYLOAD","GP_ID":"225073730","REV_AT_EPOCH":"2622","COUNTRY_CODE":"US","CENTER_NAME":"EARTH"},{"CLASSIFICATION_TYPE":"U","OBJECT_NAME":"STARLINK-4598","SEMIMAJOR_AXIS":"6917.874","BSTAR":"0.00006613000000","PERIAPSIS":"538.955","LAUNCH_DATE":"2022-08-28","APOAPSIS":"540.522","OBJECT_ID":"2022-104AU","EPHEMERIS_TYPE":"0","DECAY_DATE":null,"MEAN_MOTION":"15.08842226","EPOCH":"2023-02-10T17:12:16.354080","CENTER_NAME":"EARTH","REV_AT_EPOCH":"2653","COUNTRY_CODE":"US","INCLINATION":"53.2164","SITE":"AFETR","RCS_SIZE":"LARGE","PERIOD":"95.437","MEAN_ANOMALY":"281.8005","GP_ID":"225073977","OBJECT_TYPE":"PAYLOAD","ECCENTRICITY":"0.00011330","MEAN_MOTION_DOT":"0.00000765","TLE_LINE1":"1 53630U 22104AU  23041.71685595  .00000765  00000-0  66130-4 0  9990","MEAN_ELEMENT_THEORY":"SGP4","MEAN_MOTION_DDOT":"0.0000000000000","ELEMENT_SET_NO":"999","TLE_LINE2":"2 53630  53.2164 225.4028 0001133  78.3114 281.8005 15.08842226 26533","NORAD_CAT_ID":"53630","TIME_SYSTEM":"UTC","REF_FRAME":"TEME","FILE":"3785071","ARG_OF_PERICENTER":"78.3114","RA_OF_ASC_NODE":"225.4028"},{"ECCENTRICITY":"0.00009990","TLE_LINE1":"1 53631U 22104AV  23041.67540375  .00001667  00000-0  12278-3 0  9997","MEAN_ELEMENT_THEORY":"SGP4","MEAN_MOTION_DOT":"0.00001667","MEAN_MOTION_DDOT":"0.0000000000000","ELEMENT_SET_NO":"999","TLE_LINE2":"2 53631  53.2136 235.1312 0000999  74.7939 285.3164 15.08842141 26228","ARG_OF_PERICENTER":"74.7939","RA_OF_ASC_NODE":"235.1312","TIME_SYSTEM":"UTC","NORAD_CAT_ID":"53631","FILE":"3785071","REF_FRAME":"TEME","PERIAPSIS":"539.048","LAUNCH_DATE":"2022-08-28","APOAPSIS":"540.430","CLASSIFICATION_TYPE":"U","OBJECT_NAME":"STARLINK-4599","BSTAR":"0.00012278000000","SEMIMAJOR_AXIS":"6917.874","DECAY_DATE":null,"EPOCH":"2023-02-10T16:12:34.884000","MEAN_MOTION":"15.08842141","OBJECT_ID":"2022-104AV","EPHEMERIS_TYPE":"0","CENTER_NAME":"EARTH","REV_AT_EPOCH":"2622","COUNTRY_CODE":"US","GP_ID":"225073228","OBJECT_TYPE":"PAYLOAD","SITE":"AFETR","INCLINATION":"53.2136","RCS_SIZE":"LARGE","PERIOD":"95.437","MEAN_ANOMALY":"285.3164"},{"APOAPSIS":"540.659","LAUNCH_DATE":"2022-08-28","PERIAPSIS":"538.795","SEMIMAJOR_AXIS":"6917.862","BSTAR":"0.00022714000000","CLASSIFICATION_TYPE":"U","OBJECT_NAME":"STARLINK-4606","MEAN_MOTION":"15.08845962","EPOCH":"2023-02-10T17:01:39.927360","DECAY_DATE":null,"OBJECT_ID":"2022-104AW","EPHEMERIS_TYPE":"0","CENTER_NAME":"EARTH","REV_AT_EPOCH":"2669","COUNTRY_CODE":"US","GP_ID":"225072978","OBJECT_TYPE":"PAYLOAD","PERIOD":"95.437","RCS_SIZE":"LARGE","MEAN_ANOMALY":"282.0328","SITE":"AFETR","INCLINATION":"53.2172","ECCENTRICITY":"0.00013470","TLE_LINE1":"1 53632U 22104AW  23041.70948990  .00003329  00000-0  22714-3 0  9990","MEAN_ELEMENT_THEORY":"SGP4","MEAN_MOTION_DOT":"0.00003329","TLE_LINE2":"2 53632  53.2172 225.3553 0001347  78.0816 282.0328 15.08845962 26697","ELEMENT_SET_NO":"999","MEAN_MOTION_DDOT":"0.0000000000000","ARG_OF_PERICENTER":"78.0816","RA_OF_ASC_NODE":"225.3553","NORAD_CAT_ID":"53632","TIME_SYSTEM":"UTC","REF_FRAME":"TEME","FILE":"3785071"},{"MEAN_ELEMENT_THEORY":"SGP4","TLE_LINE1":"1 53633U 22104AX  23041.71316936  .00000182  00000-0  29523-4 0  9991","MEAN_MOTION_DOT":"0.00000182","ECCENTRICITY":"0.00012820","ARG_OF_PERICENTER":"72.5783","RA_OF_ASC_NODE":"225.3805","NORAD_CAT_ID":"53633","TIME_SYSTEM":"UTC","REF_FRAME":"TEME","FILE":"3785071","ELEMENT_SET_NO":"999","MEAN_MOTION_DDOT":"0.0000000000000","TLE_LINE2":"2 53633  53.2164 225.3805 0001282  72.5783 287.5349 15.08845898 26364","DECAY_DATE":null,"EPOCH":"2023-02-10T17:06:57.832704","MEAN_MOTION":"15.08845898","OBJECT_ID":"2022-104AX","EPHEMERIS_TYPE":"0","PERIAPSIS":"538.840","LAUNCH_DATE":"2022-08-28","APOAPSIS":"540.614","CLASSIFICATION_TYPE":"U","OBJECT_NAME":"STARLINK-4593","SEMIMAJOR_AXIS":"6917.862","BSTAR":"0.00002952300000","GP_ID":"225074230","OBJECT_TYPE":"PAYLOAD","SITE":"AFETR","INCLINATION":"53.2164","MEAN_ANOMALY":"287.5349","RCS_SIZE":"LARGE","PERIOD":"95.437","CENTER_NAME":"EARTH","COUNTRY_CODE":"US","REV_AT_EPOCH":"2636"}];
